      2.10          N: GNSS NAV DATA                        RINEX VERSION / TYPE
fic2rin                                 04/08/2018 00:11:09 PGM / RUN BY / DATE
                                                            END OF HEADER
25 18  4  7  8  0  0.0-5.657216534019e-04-6.025402399246e-12 0.000000000000e+00
    1.000000000000e+01 4.559375000000e+01 4.052668809923e-09-2.788063054246e+00
    2.356246113777e-06 7.434715516865e-03 5.437061190605e-06 5.153667287827e+03
    5.472000000000e+05 9.313225746155e-09 2.438733043592e+00-7.450580596924e-08
    9.746459113772e-01 2.817500000000e+02 8.364417977754e-01-7.914972547519e-09
    1.275053111080e-10 1.000000000000e+00 1.995000000000e+03 0.000000000000e+00
    2.400000000000e+00 0.000000000000e+00 5.587935447693e-09 1.000000000000e+01
    5.400060000000e+05 4.000000000000e+00
13 18  4  7  8  0  0.0-9.523471817374e-05 2.273736754432e-13 0.000000000000e+00
    1.000000000000e+01 1.121875000000e+01 4.516973864378e-09-2.875675418624e-01
    7.133930921555e-07 3.544181003235e-03 8.089467883110e-06 5.153656871796e+03
    5.472000000000e+05 1.117587089539e-08 4.591042263453e-01-7.450580596924e-09
    9.689620240605e-01 2.254375000000e+02 1.605342326780e+00-8.010333662550e-09
   -3.171560679661e-10 1.000000000000e+00 1.995000000000e+03 0.000000000000e+00
    2.400000000000e+00 0.000000000000e+00-1.117587089539e-08 1.000000000000e+01
    5.400060000000e+05 4.000000000000e+00
 7 18  4  7  8  0  0.0 2.112900838256e-04-5.798028723802e-12 0.000000000000e+00
    1.600000000000e+01 5.881250000000e+01 4.368039089218e-09-1.735354735507e+00
    2.887099981308e-06 1.135039911605e-02 7.830560207367e-06 5.153675849915e+03
    5.472000000000e+05 9.126961231232e-08 1.406074834901e+00-2.030283212662e-07
    9.588952546591e-01 2.282812500000e+02-2.539589383817e+00-7.802467861248e-09
   -1.071473202588e-10 1.000000000000e+00 1.995000000000e+03 0.000000000000e+00
    2.400000000000e+00 0.000000000000e+00-1.117587089539e-08 1.600000000000e+01
    5.400060000000e+05 4.000000000000e+00
 9 18  4  7  8  0  0.0 5.102213472128e-04 1.477928890381e-12 0.000000000000e+00
    1.100000000000e+01 6.187500000000e+00 4.807700260013e-09 1.314748070317e+00
    1.322478055954e-07 1.063590636477e-03 7.707625627518e-06 5.153647167206e+03
    5.472000000000e+05-6.891787052155e-08 3.282101739454e-01-1.862645149231e-09
    9.532120198039e-01 2.243750000000e+02 1.816142132078e+00-8.101051727036e-09
   -3.128701751558e-10 1.000000000000e+00 1.995000000000e+03 0.000000000000e+00
    2.400000000000e+00 0.000000000000e+00 1.396983861923e-09 1.100000000000e+01
    5.400060000000e+05 4.000000000000e+00
 6 18  4  7  8  0  0.0 4.099146462977e-04-1.591615728103e-12 0.000000000000e+00
    4.900000000000e+01-4.987500000000e+01 4.318394164165e-09-8.414329802153e-01
   -2.777203917503e-06 1.213683746755e-03 9.231269359589e-06 5.153605258942e+03
    5.472000000000e+05-2.793967723846e-08-1.757126093023e+00-1.676380634308e-08
    9.701548582040e-01 2.082812500000e+02-1.152873234141e+00-7.910329496975e-09
    2.371527355062e-10 1.000000000000e+00 1.995000000000e+03 0.000000000000e+00
    2.400000000000e+00 0.000000000000e+00 4.656612873077e-09 4.900000000000e+01
    5.400060000000e+05 4.000000000000e+00
 8 18  4  7  8  0  0.0-9.699212387204e-05-1.364242052659e-12 0.000000000000e+00
    1.280000000000e+02-4.090625000000e+01 4.258034507086e-09 1.434266802352e+00
   -2.125278115273e-06 3.478853148408e-03 5.178153514862e-06 5.153548662186e+03
    5.472000000000e+05 3.911554813385e-08-2.813206404287e+00 3.725290298462e-09
    9.692014832692e-01 2.826562500000e+02-4.926780616760e-01-8.054621221590e-09
    7.857470152314e-12 1.000000000000e+00 1.995000000000e+03 0.000000000000e+00
    2.400000000000e+00 0.000000000000e+00 5.587935447693e-09 1.280000000000e+02
    5.400060000000e+05 4.000000000000e+00
 4 18  4  7  8  0  0.0 5.088420584798e-05 3.069544618484e-12 0.000000000000e+00
    3.000000000000e+00 3.762500000000e+01 5.262004897911e-09 2.350822581859e+00
    1.907348632812e-06 9.804288507439e-03 5.584210157394e-06 5.153690765381e+03
    5.472000000000e+05-2.607703208923e-08 2.463435101469e+00-1.769512891769e-07
    9.794788572831e-01 2.816875000000e+02 9.096830664425e-01-7.887114244252e-09
    8.964659128322e-11 1.000000000000e+00 1.995000000000e+03 0.000000000000e+00
    2.400000000000e+00 6.300000000000e+01-1.955777406693e-08 3.000000000000e+00
    5.400060000000e+05 4.000000000000e+00
19 18  4  7  8  0  0.0-4.454464651644e-04 2.728484105319e-12 0.000000000000e+00
    1.100000000000e+01-6.387500000000e+01 4.044811339771e-09-2.260792894573e+00
   -3.393739461899e-06 9.798935148865e-03 5.405396223068e-06 5.153712478638e+03
    5.472000000000e+05 1.024454832077e-07-2.704335606342e+00 3.352761268616e-08
    9.800840196791e-01 2.774375000000e+02 1.149716012618e+00-7.852827101769e-09
    1.314340461842e-10 1.000000000000e+00 1.995000000000e+03 0.000000000000e+00
    2.400000000000e+00 0.000000000000e+00-1.536682248116e-08 1.100000000000e+01
    5.400060000000e+05 4.000000000000e+00
32 18  4  7  8  0  0.0-5.228258669376e-04 3.296918293927e-12 0.000000000000e+00
    1.200000000000e+01 9.187500000000e+00 4.764484174176e-09 1.893664059966e+00
    4.805624485016e-07 1.919029047713e-03 7.772818207741e-06 5.153650350571e+03
    5.472000000000e+05-6.332993507385e-08 3.329300567646e-01 5.401670932770e-08
    9.576075736849e-01 2.305000000000e+02-2.628328925112e+00-8.100337411567e-09
   -2.635824078367e-10 1.000000000000e+00 1.995000000000e+03 0.000000000000e+00
    2.400000000000e+00 0.000000000000e+00 4.656612873077e-10 1.200000000000e+01
    5.400060000000e+05 4.000000000000e+00
22 18  4  7  8  0  0.0-3.494899719954e-04-1.307398633799e-11 0.000000000000e+00
    6.300000000000e+01-2.093750000000e+00 5.719881113150e-09 4.907370502651e-01
   -3.539025783539e-08 7.438474334776e-03 7.735565304756e-06 5.153544668198e+03
    5.472000000000e+05-9.872019290924e-08-7.633236439051e-01-1.676380634308e-08
    9.248229885096e-01 2.163125000000e+02-1.581281199646e+00-8.675361363623e-09
    1.575065607805e-10 1.000000000000e+00 1.995000000000e+03 0.000000000000e+00
    2.400000000000e+00 0.000000000000e+00-1.769512891769e-08 6.300000000000e+01
    5.400060000000e+05 4.000000000000e+00
15 18  4  7  8  0  0.0-3.557214513421e-04 3.410605131648e-13 0.000000000000e+00
    1.140000000000e+02 4.281250000000e+00 5.554517082217e-09 2.667402346414e-01
    4.172325134277e-07 1.020758645609e-02 7.214024662971e-06 5.153711532593e+03
    5.472000000000e+05 1.490116119385e-08 2.587583063678e-01 1.471489667892e-07
    9.287680499344e-01 2.199375000000e+02 6.738867500423e-01-8.600715397176e-09
   -3.182275411687e-10 1.000000000000e+00 1.995000000000e+03 0.000000000000e+00
    2.400000000000e+00 0.000000000000e+00-1.071020960808e-08 1.140000000000e+02
    5.400060000000e+05 4.000000000000e+00
17 18  4  7  8  0  0.0-1.091184094548e-04 3.296918293927e-12 0.000000000000e+00
    6.100000000000e+01-5.484375000000e+01 4.096956368963e-09 9.890731568099e-01
   -2.907589077950e-06 1.227566739544e-02 5.742534995079e-06 5.153789291382e+03
    5.472000000000e+05-2.440065145493e-07-2.751410765291e+00-5.587935447693e-09
    9.826174587841e-01 2.786875000000e+02-1.782110015715e+00-8.174983378014e-09
   -8.571785620706e-12 1.000000000000e+00 1.995000000000e+03 0.000000000000e+00
    2.400000000000e+00 0.000000000000e+00-1.117587089539e-08 6.100000000000e+01
    5.400060000000e+05 4.000000000000e+00
18 18  4  7  8  0  0.0-6.261281669140e-06 4.888534022029e-12 0.000000000000e+00
    3.200000000000e+01-4.237500000000e+01 4.862345393345e-09-1.328397559742e+00
   -1.927837729454e-06 1.433943840675e-02 8.009374141693e-06 5.153671129227e+03
    5.472000000000e+05 1.024454832077e-07-1.794823879790e+00 3.557652235031e-07
    9.487908019510e-01 2.193750000000e+02 1.297615601161e+00-8.199627261674e-09
    1.878649681871e-10 1.000000000000e+00 1.995000000000e+03 0.000000000000e+00
    2.400000000000e+00 0.000000000000e+00-6.519258022308e-09 3.200000000000e+01
    5.400060000000e+05 4.000000000000e+00
12 18  4  7  8  0  0.0 3.410032950342e-04-2.160049916711e-12 0.000000000000e+00
    6.800000000000e+01 4.028125000000e+01 3.852660478773e-09-2.329110216515e+00
    2.078711986542e-06 7.164034526795e-03 5.040317773819e-06 5.153617465973e+03
    5.472000000000e+05 1.862645149231e-08 2.497871896082e+00-9.499490261078e-08
    9.870055620234e-01 2.959375000000e+02 9.507180121927e-01-7.806396596324e-09
    1.328626771209e-10 1.000000000000e+00 1.995000000000e+03 0.000000000000e+00
    2.400000000000e+00 0.000000000000e+00-1.257285475731e-08 6.800000000000e+01
    5.400060000000e+05 4.000000000000e+00
10 18  4  7  8  0  0.0 1.770048402250e-04 2.955857780762e-12 0.000000000000e+00
    9.100000000000e+01-7.531250000000e+00 4.712696302717e-09 3.135495537266e+00
   -3.669410943985e-07 3.439443185925e-03 7.998198270798e-06 5.153665136337e+03
    5.472000000000e+05-4.284083843231e-08-7.091214743043e-01-5.960464477539e-08
    9.609245400099e-01 2.272812500000e+02-2.767168906298e+00-7.956045686952e-09
    1.542921411727e-10 1.000000000000e+00 1.995000000000e+03 0.000000000000e+00
    2.400000000000e+00 0.000000000000e+00 1.862645149231e-09 9.100000000000e+01
    5.400060000000e+05 4.000000000000e+00
30 18  4  7  8  0  0.0 8.725142106414e-05-3.865352482535e-12 0.000000000000e+00
    4.500000000000e+01 5.750000000000e+01 4.711624829515e-09-1.582309948509e+00
    2.864748239517e-06 3.201675484888e-03 7.890164852142e-06 5.153754436493e+03
    5.472000000000e+05-5.774199962616e-08 1.440399138429e+00-4.470348358154e-08
    9.445048147824e-01 2.200000000000e+02-3.123227812003e+00-8.079622262984e-09
   -1.496490906282e-10 1.000000000000e+00 1.995000000000e+03 0.000000000000e+00
    2.400000000000e+00 0.000000000000e+00 3.725290298462e-09 4.500000000000e+01
    5.400060000000e+05 4.000000000000e+00
